{"type": "FeatureCollection", "features": [ {"type": "Feature", "properties": {"norad_id": 41785, "name": "ALSAT 1B", "group": "resource", "lat": 20.5116376645041, "lon": -167.45576164463637, "alt_km": 654.1879701173648, "timestamp": "2025-12-24T07:45:05.856316+00:00", "meta": {"OBJECT_NAME": "ALSAT 1B", "OBJECT_ID": "2016-059C", "EPOCH": "2025-12-23T22:52:31.126656", "MEAN_MOTION": 14.72087789, "ECCENTRICITY": 0.00107628, "INCLINATION": 97.7805, "RA_OF_ASC_NODE": 9.2583, "ARG_OF_PERICENTER": 72.0484, "MEAN_ANOMALY": 288.1897, "EPHEMERIS_TYPE": 0, "CLASSIFICATION_TYPE": "U", "NORAD_CAT_ID": 41785, "ELEMENT_SET_NO": 999, "REV_AT_EPOCH": 49479, "BSTAR": 0.00013322458, "MEAN_MOTION_DOT": 7.91e-06, "MEAN_MOTION_DDOT": 0}, "tle": {"line1": "1 41785U 16059C   25357.95313804  .00000791  00000+0  13322-3 0  9991", "line2": "2 41785  97.7805   9.2583 0010762  72.0484 288.1897 14.72087789494790"}}, "geometry": {"type": "Point", "coordinates": [-167.45576164463637, 20.5116376645041]}}, {"type": "Feature", "properties": {"norad_id": 41787, "name": "PATHFINDER 1", "group": "resource", "lat": 39.301269224753185, "lon": -5.894583566514206, "alt_km": 645.7911510433787, "timestamp": "2025-12-24T07:45:05.856325+00:00", "meta": {"OBJECT_NAME": "PATHFINDER 1", "OBJECT_ID": "2016-059E", "EPOCH": "2025-12-23T23:23:20.655168", "MEAN_MOTION": 14.67340059, "ECCENTRICITY": 0.00296638, "INCLINATION": 97.8138, "RA_OF_ASC_NODE": 0.2268, "ARG_OF_PERICENTER": 46.9323, "MEAN_ANOMALY": 313.4358, "EPHEMERIS_TYPE": 0, "CLASSIFICATION_TYPE": "U", "NORAD_CAT_ID": 41787, "ELEMENT_SET_NO": 999, "REV_AT_EPOCH": 49401, "BSTAR": 0.00014582965, "MEAN_MOTION_DOT": 7.82e-06, "MEAN_MOTION_DDOT": 0}, "tle": {"line1": "1 41787U 16059E   25357.97454462  .00000782  00000+0  14583-3 0  9991", "line2": "2 41787  97.8138   0.2268 0029663  46.9323 313.4358 14.67340059494010"}}, "geometry": {"type": "Point", "coordinates": [-5.894583566514206, 39.301269224753185]}}, {"type": "Feature", "properties": {"norad_id": 41790, "name": "SCATSAT 1", "group": "resource", "lat": 22.23616587835391, "lon": -121.50630986644185, "alt_km": 615.9599822937425, "timestamp": "2025-12-24T07:45:05.856335+00:00", "meta": {"OBJECT_NAME": "SCATSAT 1", "OBJECT_ID": "2016-059H", "EPOCH": "2025-12-23T21:18:19.292256", "MEAN_MOTION": 14.78971155, "ECCENTRICITY": 0.00564864, "INCLINATION": 98.1447, "RA_OF_ASC_NODE": 54.6965, "ARG_OF_PERICENTER": 92.8898, "MEAN_ANOMALY": 267.8779, "EPHEMERIS_TYPE": 0, "CLASSIFICATION_TYPE": "U", "NORAD_CAT_ID": 41790, "ELEMENT_SET_NO": 999, "REV_AT_EPOCH": 7567, "BSTAR": 0.00019690635, "MEAN_MOTION_DOT": 1.436e-05, "MEAN_MOTION_DDOT": 0}, "tle": {"line1": "1 41790U 16059H   25357.88772329  .00001436  00000+0  19691-3 0  9992", "line2": "2 41790  98.1447  54.6965 0056486  92.8898 267.8779 14.78971155 75673"}}, "geometry": {"type": "Point", "coordinates": [-121.50630986644185, 22.23616587835391]}}, {"type": "Feature", "properties": {"norad_id": 41875, "name": "GOKTURK 1A", "group": "resource", "lat": -70.24418545685472, "lon": -85.97158643072811, "alt_km": 692.257547563363, "timestamp": "2025-12-24T07:45:05.856344+00:00", "meta": {"OBJECT_NAME": "GOKTURK 1A", "OBJECT_ID": "2016-073A", "EPOCH": "2025-12-23T23:52:18.166080", "MEAN_MOTION": 14.6279207, "ECCENTRICITY": 0.00012934, "INCLINATION": 98.1429, "RA_OF_ASC_NODE": 250.21, "ARG_OF_PERICENTER": 81.4103, "MEAN_ANOMALY": 278.7245, "EPHEMERIS_TYPE": 0, "CLASSIFICATION_TYPE": "U", "NORAD_CAT_ID": 41875, "ELEMENT_SET_NO": 999, "REV_AT_EPOCH": 48321, "BSTAR": 0.00013483765, "MEAN_MOTION_DOT": 6.41e-06, "MEAN_MOTION_DDOT": 0}, "tle": {"line1": "1 41875U 16073A   25357.99465470  .00000641  00000+0  13484-3 0  9991", "line2": "2 41875  98.1429 250.2100 0001293  81.4103 278.7245 14.62792070483213"}}, "geometry": {"type": "Point", "coordinates": [-85.97158643072811, -70.24418545685472]}}, {"type": "Feature", "properties": {"norad_id": 41877, "name": "RESOURCESAT-2A", "group": "resource", "lat": 61.249927061001635, "lon": 51.760083453600146, "alt_km": 814.8257399077147, "timestamp": "2025-12-24T07:45:05.856354+00:00", "meta": {"OBJECT_NAME": "RESOURCESAT-2A", "OBJECT_ID": "2016-074A", "EPOCH": "2025-12-23T23:00:45.402912", "MEAN_MOTION": 14.21604797, "ECCENTRICITY": 0.0001582, "INCLINATION": 98.7743, "RA_OF_ASC_NODE": 67.7491, "ARG_OF_PERICENTER": 204.8509, "MEAN_ANOMALY": 155.2592, "EPHEMERIS_TYPE": 0, "CLASSIFICATION_TYPE": "U", "NORAD_CAT_ID": 41877, "ELEMENT_SET_NO": 999, "REV_AT_EPOCH": 46940, "BSTAR": 0.00015773951, "MEAN_MOTION_DOT": 3.01e-06, "MEAN_MOTION_DDOT": 0}, "tle": {"line1": "1 41877U 16074A   25357.95885883  .00000301  00000+0  15774-3 0  9991", "line2": "2 41877  98.7743  67.7491 0001582 204.8509 155.2592 14.21604797469408"}}, "geometry": {"type": "Point", "coordinates": [51.760083453600146, 61.249927061001635]}}, {"type": "Feature", "properties": {"norad_id": 41948, "name": "CARTOSAT-2D", "group": "resource", "lat": 4.649416257284411, "lon": -123.74812781914886, "alt_km": 508.74600479377204, "timestamp": "2025-12-24T07:45:05.856364+00:00", "meta": {"OBJECT_NAME": "CARTOSAT-2D", "OBJECT_ID": "2017-008A", "EPOCH": "2025-12-23T23:04:45.338304", "MEAN_MOTION": 15.19171771, "ECCENTRICITY": 0.00052837, "INCLINATION": 97.4375, "RA_OF_ASC_NODE": 55.2874, "ARG_OF_PERICENTER": 120.6667, "MEAN_ANOMALY": 239.5089, "EPHEMERIS_TYPE": 0, "CLASSIFICATION_TYPE": "U", "NORAD_CAT_ID": 41948, "ELEMENT_SET_NO": 999, "REV_AT_EPOCH": 49097, "BSTAR": 0.00020564083, "MEAN_MOTION_DOT": 4.258e-05, "MEAN_MOTION_DDOT": 0}, "tle": {"line1": "1 41948U 17008A   25357.96163586  .00004258  00000+0  20564-3 0  9996", "line2": "2 41948  97.4375  55.2874 0005283 120.6667 239.5089 15.19171771490975"}}, "geometry": {"type": "Point", "coordinates": [-123.74812781914886, 4.649416257284411]}}, {"type": "Feature", "properties": {"norad_id": 42063, "name": "SENTINEL-2B", "group": "resource", "lat": 53.68327842241426, "lon": 58.766688427039355, "alt_km": 783.2335487437458, "timestamp": "2025-12-24T07:45:05.856374+00:00", "meta": {"OBJECT_NAME": "SENTINEL-2B", "OBJECT_ID": "2017-013A", "EPOCH": "2025-12-23T23:06:21.099744", "MEAN_MOTION": 14.30814917, "ECCENTRICITY": 0.00011941, "INCLINATION": 98.5703, "RA_OF_ASC_NODE": 70.2509, "ARG_OF_PERICENTER": 92.1628, "MEAN_ANOMALY": 267.9691, "EPHEMERIS_TYPE": 0, "CLASSIFICATION_TYPE": "U", "NORAD_CAT_ID": 42063, "ELEMENT_SET_NO": 999, "REV_AT_EPOCH": 45958, "BSTAR": 7.6413539e-05, "MEAN_MOTION_DOT": 1.57e-06, "MEAN_MOTION_DDOT": 0}, "tle": {"line1": "1 42063U 17013A   25357.96274421  .00000157  00000+0  76414-4 0  9992", "line2": "2 42063  98.5703  70.2509 0001194  92.1628 267.9691 14.30814917459584"}}, "geometry": {"type": "Point", "coordinates": [58.766688427039355, 53.68327842241426]}}, {"type": "Feature", "properties": {"norad_id": 42767, "name": "CARTOSAT-2E", "group": "resource", "lat": 80.89246380876638, "lon": 1.0042386279349602, "alt_km": 500.89136505253737, "timestamp": "2025-12-24T07:45:05.856384+00:00", "meta": {"OBJECT_NAME": "CARTOSAT-2E", "OBJECT_ID": "2017-036C", "EPOCH": "2025-12-23T09:15:01.065600", "MEAN_MOTION": 15.1929816, "ECCENTRICITY": 0.00027834, "INCLINATION": 97.4537, "RA_OF_ASC_NODE": 54.8332, "ARG_OF_PERICENTER": 189.294, "MEAN_ANOMALY": 170.8244, "EPHEMERIS_TYPE": 0, "CLASSIFICATION_TYPE": "U", "NORAD_CAT_ID": 42767, "ELEMENT_SET_NO": 999, "REV_AT_EPOCH": 47145, "BSTAR": 0.00026726953, "MEAN_MOTION_DOT": 5.574e-05, "MEAN_MOTION_DDOT": 0}, "tle": {"line1": "1 42767U 17036C   25357.38542900  .00005574  00000+0  26727-3 0  9993", "line2": "2 42767  97.4537  54.8332 0002783 189.2940 170.8244 15.19298160471450"}}, "geometry": {"type": "Point", "coordinates": [1.0042386279349602, 80.89246380876638]}}, {"type": "Feature", "properties": {"norad_id": 42920, "name": "FORMOSAT-5", "group": "resource", "lat": 9.569278931729876, "lon": -106.19082166443711, "alt_km": 724.9993703425807, "timestamp": "2025-12-24T07:45:05.856394+00:00", "meta": {"OBJECT_NAME": "FORMOSAT-5", "OBJECT_ID": "2017-049A", "EPOCH": "2025-12-23T22:41:31.759008", "MEAN_MOTION": 14.50766754, "ECCENTRICITY": 0.00098265, "INCLINATION": 98.2439, "RA_OF_ASC_NODE": 72.0389, "ARG_OF_PERICENTER": 263.1753, "MEAN_ANOMALY": 96.8324, "EPHEMERIS_TYPE": 0, "CLASSIFICATION_TYPE": "U", "NORAD_CAT_ID": 42920, "ELEMENT_SET_NO": 999, "REV_AT_EPOCH": 44126, "BSTAR": 6.8332778e-05, "MEAN_MOTION_DOT": 2.25e-06, "MEAN_MOTION_DDOT": 0}, "tle": {"line1": "1 42920U 17049A   25357.94550647  .00000225  00000+0  68333-4 0  9995", "line2": "2 42920  98.2439  72.0389 0009826 263.1753  96.8324 14.50766754441269"}}, "geometry": {"type": "Point", "coordinates": [-106.19082166443711, 9.569278931729876]}}, {"type": "Feature", "properties": {"norad_id": 42969, "name": "SENTINEL-5P", "group": "resource", "lat": -17.914678425313543, "lon": -60.33106585676219, "alt_km": 832.1287157481474, "timestamp": "2025-12-24T07:45:05.856404+00:00", "meta": {"OBJECT_NAME": "SENTINEL-5P", "OBJECT_ID": "2017-064A", "EPOCH": "2025-12-23T19:59:42.776736", "MEAN_MOTION": 14.19520112, "ECCENTRICITY": 0.00010333, "INCLINATION": 98.7801, "RA_OF_ASC_NODE": 296.3196, "ARG_OF_PERICENTER": 91.263, "MEAN_ANOMALY": 268.8664, "EPHEMERIS_TYPE": 0, "CLASSIFICATION_TYPE": "U", "NORAD_CAT_ID": 42969, "ELEMENT_SET_NO": 999, "REV_AT_EPOCH": 42468, "BSTAR": 5.3996767e-05, "MEAN_MOTION_DOT": 7e-07, "MEAN_MOTION_DDOT": 0}, "tle": {"line1": "1 42969U 17064A   25357.83313399  .00000070  00000+0  53997-4 0  9992", "line2": "2 42969  98.7801 296.3196 0001033  91.2630 268.8664 14.19520112424689"}}, "geometry": {"type": "Point", "coordinates": [-60.33106585676219, -17.914678425313543]}}]}